GLOBALSTAR M024         
1 25883U 99043A   25077.53210336 -.00000084  00000+0 -67485-3 0  9991
2 25883  51.9987 225.1720 0000660 324.5930 120.0055 11.10162358104796
GLOBALSTAR M027         
1 25884U 99043B   25077.53101294 -.00000055  00000+0  30528-3 0  9999
2 25884  52.0218 300.5919 0020952 203.4976 156.4861 11.04371352131220
GLOBALSTAR M054         
1 25885U 99043C   25077.42178521 -.00000090  00000+0 -47311-3 0  9993
2 25885  52.0125  83.3610 0006001  19.1636 128.1234 11.39211340108701
GLOBALSTAR M053         
1 25886U 99043D   25077.33052002 -.00000070  00000+0 -33725-4 0  9992
2 25886  52.0019  25.6325 0003181 291.3199 239.5471 11.27663525109197
GLOBALSTAR M058         
1 25907U 99049A   25077.83671991 -.00000134  00000+0 -67351-3 0  9993
2 25907  51.9973 350.4349 0002625  91.2452 268.8683 11.93196518141961
GLOBALSTAR M050         
1 25908U 99049B   25077.32513031 -.00000137  00000+0 -55254-3 0  9990
2 25908  52.0028   6.2635 0008698 208.4943 231.0315 12.07450480137216
GLOBALSTAR M033         
1 25909U 99049C   25077.59431235 -.00000036  00000+0  53551-3 0  9990
2 25909  51.9892 243.6144 0014227  78.8478 281.3968 12.20287245524688
GLOBALSTAR M055         
1 25910U 99049D   25077.52542568 -.00000058  00000+0  31115-3 0  9993
2 25910  52.0003 258.9719 0006209 307.4258  52.6028 12.29423452157130
